SL-8 R/B                
1 21088U 91006B   26093.24902740  .00000148  00000+0  13320-3 0  9997
2 21088  82.9436 151.7862 0021507 329.5962  96.0417 13.77498489767450
OKEAN-3                 
1 21397U 91039A   26093.08167579  .00005126  00000+0  35930-3 0  9993
2 21397  82.5149 313.2080 0012696 246.7901 113.1989 15.04954110868704
COSMOS 2151             
1 21422U 91042A   26093.29615876  .00003673  00000+0  29132-3 0  9999
2 21422  82.4957  59.9328 0011812 345.2787  14.8091 15.00218658866888
SL-14 R/B               
1 21423U 91042B   26093.26942238  .00000746  00000+0  91233-4 0  9992
2 21423  82.4959 197.1392 0017667 155.9522 204.2522 14.81856255856718
ERS-1                   
1 21574U 91050A   26093.30407813  .00000550  00000+0  19031-3 0  9996
2 21574  98.7860 112.1556 0032896 128.1590 232.2569 14.39469637819272
ARIANE 40 R/B           
1 21610U 91050F   26093.15778804  .00000516  00000+0  16693-3 0  9994
2 21610  98.1961 144.4699 0003234  24.5636 335.5708 14.42912702822523
INTERCOSMOS 25          
1 21819U 91086A   26093.25618634  .00002674  00000+0  51852-3 0  9992
2 21819  82.6000 295.1550 1486365  64.0029 310.6431 12.12088122499669
SL-8 R/B                
1 21876U 92008B   26092.94721000  .00000018  00000+0  24056-5 0  9995
2 21876  82.9240 249.7288 0035837  67.9376  45.8319 13.75969799712752
SL-8 R/B                
1 21938U 92020B   26093.20598495  .00000035  00000+0  20646-4 0  9997
2 21938  82.9294 135.5575 0027980 227.2443 197.1205 13.75550690704502
USA 81                  
1 21949U 92023A   26093.10894009  .00000236  00000+0  79885-4 0  9993
2 21949  85.0040 117.3476 0001572  69.5281 290.6080 14.32376288 98285
COSMOS 2219             
1 22219U 92076A   26093.06710516 -.00000170  00000+0 -64661-4 0  9992
2 22219  71.0610 327.1127 0017714 170.2659 189.8811 14.14089177721824
SL-16 R/B               
1 22220U 92076B   26093.26698597 -.00000150  00000+0 -50717-4 0  9995
2 22220  70.9986 136.6055 0010878  51.0811  18.9499 14.16862842725315
COSMOS 2221             
1 22236U 92080A   26092.91320408  .00003700  00000+0  32437-3 0  9991
2 22236  82.5010 255.8698 0015678 109.7517 250.5397 14.96310694784411
SL-16 R/B               
1 22285U 92093B   26093.04998576 -.00000018  00000+0  15089-4 0  9996
2 22285  71.0222 313.1295 0006631 270.3929  89.6434 14.15456116716605
COSMOS 2228             
1 22286U 92094A   26093.31430963  .00004083  00000+0  34879-3 0  9991
2 22286  82.5198 213.7335 0017170 215.1287 144.8805 14.97327895779740
SL-16 R/B               
1 22566U 93016B   26093.30489343  .00000324  00000+0  19074-3 0  9996
2 22566  71.0073 163.4858 0012368 282.5718  77.4021 14.15307893705654
COSMOS 2242             
1 22626U 93024A   26092.43806054  .00003573  00000+0  31042-3 0  9995
2 22626  82.5170 243.9944 0015379 221.8663 138.1384 14.96658579783940
