[{"OBJECT_NAME":"SL-8 R/B","OBJECT_ID":"1991-006B","EPOCH":"2026-04-03T05:58:35.967360","MEAN_MOTION":13.77498489,"ECCENTRICITY":0.0021507,"INCLINATION":82.9436,"RA_OF_ASC_NODE":151.7862,"ARG_OF_PERICENTER":329.5962,"MEAN_ANOMALY":96.0417,"EPHEMERIS_TYPE":0,"CLASSIFICATION_TYPE":"U","NORAD_CAT_ID":21088,"ELEMENT_SET_NO":999,"REV_AT_EPOCH":76745,"BSTAR":0.00013319799,"MEAN_MOTION_DOT":1.48e-6,"MEAN_MOTION_DDOT":0},{"OBJECT_NAME":"OKEAN-3","OBJECT_ID":"1991-039A","EPOCH":"2026-04-03T01:57:36.788256","MEAN_MOTION":15.0495411,"ECCENTRICITY":0.00126969,"INCLINATION":82.5149,"RA_OF_ASC_NODE":313.208,"ARG_OF_PERICENTER":246.7901,"MEAN_ANOMALY":113.1989,"EPHEMERIS_TYPE":0,"CLASSIFICATION_TYPE":"U","NORAD_CAT_ID":21397,"ELEMENT_SET_NO":999,"REV_AT_EPOCH":86870,"BSTAR":0.00035930466,"MEAN_MOTION_DOT":5.126e-5,"MEAN_MOTION_DDOT":0},{"OBJECT_NAME":"COSMOS 2151","OBJECT_ID":"1991-042A","EPOCH":"2026-04-03T07:06:28.116864","MEAN_MOTION":15.00218658,"ECCENTRICITY":0.00118121,"INCLINATION":82.4957,"RA_OF_ASC_NODE":59.9328,"ARG_OF_PERICENTER":345.2787,"MEAN_ANOMALY":14.8091,"EPHEMERIS_TYPE":0,"CLASSIFICATION_TYPE":"U","NORAD_CAT_ID":21422,"ELEMENT_SET_NO":999,"REV_AT_EPOCH":86688,"BSTAR":0.00029131939,"MEAN_MOTION_DOT":3.673e-5,"MEAN_MOTION_DDOT":0},{"OBJECT_NAME":"SL-14 R/B","OBJECT_ID":"1991-042B","EPOCH":"2026-04-03T06:27:58.093632","MEAN_MOTION":14.81856255,"ECCENTRICITY":0.00176677,"INCLINATION":82.4959,"RA_OF_ASC_NODE":197.1392,"ARG_OF_PERICENTER":155.9522,"MEAN_ANOMALY":204.2522,"EPHEMERIS_TYPE":0,"CLASSIFICATION_TYPE":"U","NORAD_CAT_ID":21423,"ELEMENT_SET_NO":999,"REV_AT_EPOCH":85671,"BSTAR":9.1232901e-5,"MEAN_MOTION_DOT":7.46e-6,"MEAN_MOTION_DDOT":0},{"OBJECT_NAME":"ERS-1","OBJECT_ID":"1991-050A","EPOCH":"2026-04-03T07:17:52.350432","MEAN_MOTION":14.39469637,"ECCENTRICITY":0.00328967,"INCLINATION":98.786,"RA_OF_ASC_NODE":112.1556,"ARG_OF_PERICENTER":128.159,"MEAN_ANOMALY":232.2569,"EPHEMERIS_TYPE":0,"CLASSIFICATION_TYPE":"U","NORAD_CAT_ID":21574,"ELEMENT_SET_NO":999,"REV_AT_EPOCH":81927,"BSTAR":0.00019030694,"MEAN_MOTION_DOT":5.5e-6,"MEAN_MOTION_DDOT":0},{"OBJECT_NAME":"ARIANE 40 R/B","OBJECT_ID":"1991-050F","EPOCH":"2026-04-03T03:47:12.886656","MEAN_MOTION":14.42912702,"ECCENTRICITY":0.00032346,"INCLINATION":98.1961,"RA_OF_ASC_NODE":144.4699,"ARG_OF_PERICENTER":24.5636,"MEAN_ANOMALY":335.5708,"EPHEMERIS_TYPE":0,"CLASSIFICATION_TYPE":"U","NORAD_CAT_ID":21610,"ELEMENT_SET_NO":999,"REV_AT_EPOCH":82252,"BSTAR":0.00016692506,"MEAN_MOTION_DOT":5.16e-6,"MEAN_MOTION_DDOT":0},{"OBJECT_NAME":"INTERCOSMOS 25","OBJECT_ID":"1991-086A","EPOCH":"2026-04-03T06:08:54.499776","MEAN_MOTION":12.12088122,"ECCENTRICITY":0.14863653,"INCLINATION":82.6,"RA_OF_ASC_NODE":295.155,"ARG_OF_PERICENTER":64.0029,"MEAN_ANOMALY":310.6431,"EPHEMERIS_TYPE":0,"CLASSIFICATION_TYPE":"U","NORAD_CAT_ID":21819,"ELEMENT_SET_NO":999,"REV_AT_EPOCH":49966,"BSTAR":0.00051852138,"MEAN_MOTION_DOT":2.674e-5,"MEAN_MOTION_DDOT":0},{"OBJECT_NAME":"SL-8 R/B","OBJECT_ID":"1992-008B","EPOCH":"2026-04-02T22:43:58.944000","MEAN_MOTION":13.75969799,"ECCENTRICITY":0.0035837,"INCLINATION":82.924,"RA_OF_ASC_NODE":249.7288,"ARG_OF_PERICENTER":67.9376,"MEAN_ANOMALY":45.8319,"EPHEMERIS_TYPE":0,"CLASSIFICATION_TYPE":"U","NORAD_CAT_ID":21876,"ELEMENT_SET_NO":999,"REV_AT_EPOCH":71275,"BSTAR":2.40565e-6,"MEAN_MOTION_DOT":1.8e-7,"MEAN_MOTION_DDOT":0},{"OBJECT_NAME":"SL-8 R/B","OBJECT_ID":"1992-020B","EPOCH":"2026-04-03T04:56:37.099680","MEAN_MOTION":13.7555069,"ECCENTRICITY":0.00279809,"INCLINATION":82.9294,"RA_OF_ASC_NODE":135.5575,"ARG_OF_PERICENTER":227.2443,"MEAN_ANOMALY":197.1205,"EPHEMERIS_TYPE":0,"CLASSIFICATION_TYPE":"U","NORAD_CAT_ID":21938,"ELEMENT_SET_NO":999,"REV_AT_EPOCH":70450,"BSTAR":2.0646302e-5,"MEAN_MOTION_DOT":3.5e-7,"MEAN_MOTION_DDOT":0},{"OBJECT_NAME":"USA 81","OBJECT_ID":"1992-023A","EPOCH":"2026-04-03T02:36:52.423776","MEAN_MOTION":14.32376288,"ECCENTRICITY":0.00015723,"INCLINATION":85.004,"RA_OF_ASC_NODE":117.3476,"ARG_OF_PERICENTER":69.5281,"MEAN_ANOMALY":290.608,"EPHEMERIS_TYPE":0,"CLASSIFICATION_TYPE":"U","NORAD_CAT_ID":21949,"ELEMENT_SET_NO":999,"REV_AT_EPOCH":9828,"BSTAR":7.9884828e-5,"MEAN_MOTION_DOT":2.36e-6,"MEAN_MOTION_DDOT":0},{"OBJECT_NAME":"COSMOS 2219","OBJECT_ID":"1992-076A","EPOCH":"2026-04-03T01:36:37.885824","MEAN_MOTION":14.14089177,"ECCENTRICITY":0.0017714,"INCLINATION":71.061,"RA_OF_ASC_NODE":327.1127,"ARG_OF_PERICENTER":170.2659,"MEAN_ANOMALY":189.8811,"EPHEMERIS_TYPE":0,"CLASSIFICATION_TYPE":"U","NORAD_CAT_ID":22219,"ELEMENT_SET_NO":999,"REV_AT_EPOCH":72182,"BSTAR":-6.4660664e-5,"MEAN_MOTION_DOT":-1.7e-6,"MEAN_MOTION_DDOT":0},{"OBJECT_NAME":"SL-16 R/B","OBJECT_ID":"1992-076B","EPOCH":"2026-04-03T06:24:27.587808","MEAN_MOTION":14.16862842,"ECCENTRICITY":0.00108787,"INCLINATION":70.9986,"RA_OF_ASC_NODE":136.6055,"ARG_OF_PERICENTER":51.0811,"MEAN_ANOMALY":18.9499,"EPHEMERIS_TYPE":0,"CLASSIFICATION_TYPE":"U","NORAD_CAT_ID":22220,"ELEMENT_SET_NO":999,"REV_AT_EPOCH":72531,"BSTAR":-5.0717294e-5,"MEAN_MOTION_DOT":-1.5e-6,"MEAN_MOTION_DDOT":0},{"OBJECT_NAME":"COSMOS 2221","OBJECT_ID":"1992-080A","EPOCH":"2026-04-02T21:55:00.832512","MEAN_MOTION":14.96310694,"ECCENTRICITY":0.00156783,"INCLINATION":82.501,"RA_OF_ASC_NODE":255.8698,"ARG_OF_PERICENTER":109.7517,"MEAN_ANOMALY":250.5397,"EPHEMERIS_TYPE":0,"CLASSIFICATION_TYPE":"U","NORAD_CAT_ID":22236,"ELEMENT_SET_NO":999,"REV_AT_EPOCH":78441,"BSTAR":0.00032437054,"MEAN_MOTION_DOT":3.7e-5,"MEAN_MOTION_DDOT":0},{"OBJECT_NAME":"SL-16 R/B","OBJECT_ID":"1992-093B","EPOCH":"2026-04-03T01:11:58.769664","MEAN_MOTION":14.15456116,"ECCENTRICITY":0.00066316,"INCLINATION":71.0222,"RA_OF_ASC_NODE":313.1295,"ARG_OF_PERICENTER":270.3929,"MEAN_ANOMALY":89.6434,"EPHEMERIS_TYPE":0,"CLASSIFICATION_TYPE":"U","NORAD_CAT_ID":22285,"ELEMENT_SET_NO":999,"REV_AT_EPOCH":71660,"BSTAR":1.5088865e-5,"MEAN_MOTION_DOT":-1.8e-7,"MEAN_MOTION_DDOT":0},{"OBJECT_NAME":"COSMOS 2228","OBJECT_ID":"1992-094A","EPOCH":"2026-04-03T07:32:36.352032","MEAN_MOTION":14.97327895,"ECCENTRICITY":0.00171702,"INCLINATION":82.5198,"RA_OF_ASC_NODE":213.7335,"ARG_OF_PERICENTER":215.1287,"MEAN_ANOMALY":144.8805,"EPHEMERIS_TYPE":0,"CLASSIFICATION_TYPE":"U","NORAD_CAT_ID":22286,"ELEMENT_SET_NO":999,"REV_AT_EPOCH":77974,"BSTAR":0.00034878542,"MEAN_MOTION_DOT":4.083e-5,"MEAN_MOTION_DDOT":0},{"OBJECT_NAME":"SL-16 R/B","OBJECT_ID":"1993-016B","EPOCH":"2026-04-03T07:19:02.792352","MEAN_MOTION":14.15307893,"ECCENTRICITY":0.00123685,"INCLINATION":71.0073,"RA_OF_ASC_NODE":163.4858,"ARG_OF_PERICENTER":282.5718,"MEAN_ANOMALY":77.4021,"EPHEMERIS_TYPE":0,"CLASSIFICATION_TYPE":"U","NORAD_CAT_ID":22566,"ELEMENT_SET_NO":999,"REV_AT_EPOCH":70565,"BSTAR":0.00019074191,"MEAN_MOTION_DOT":3.24e-6,"MEAN_MOTION_DDOT":0},{"OBJECT_NAME":"COSMOS 2242","OBJECT_ID":"1993-024A","EPOCH":"2026-04-02T10:30:48.430656","MEAN_MOTION":14.96658579,"ECCENTRICITY":0.00153794,"INCLINATION":82.517,"RA_OF_ASC_NODE":243.9944,"ARG_OF_PERICENTER":221.8663,"MEAN_ANOMALY":138.1384,"EPHEMERIS_TYPE":0,"CLASSIFICATION_TYPE":"U","NORAD_CAT_ID":22626,"ELEMENT_SET_NO":999,"REV_AT_EPOCH":78394,"BSTAR":0.00031042379,"MEAN_MOTION_DOT":3.573e-5,"MEAN_MOTION_DDOT":0}]
